ONEWEB-0228             
1 48780U 21045P   24170.67580212 -.00004216  00000+0 -11243-1 0  9990
2 48780  87.9020  44.1509 0001414  89.6093 270.5199 13.15513070148544
